ONEWEB-0258             
1 48976U 21060K   24273.49738308  .00000119  00000+0  27844-3 0  9991
2 48976  87.9170 353.4142 0002011  98.5670 261.5689 13.16595452157268
ONEWEB-0260             
1 48978U 21060M   24273.48232524  .00000026  00000+0  34264-4 0  9993
2 48978  87.9172 353.4311 0001634 116.6485 243.4813 13.16593436157275
ONEWEB-0261             
1 48979U 21060N   24273.52746521 -.00000146  00000+0 -41497-3 0  9996
2 48979  87.9166 353.4183 0002326 113.9815 246.1560 13.16597483157334
ONEWEB-0263             
1 48981U 21060Q   24273.46414173  .00000069  00000+0  14674-3 0  9996
2 48981  87.9176 353.4119 0002310 107.0960 253.0424 13.16595331157252
ONEWEB-0264             
1 48982U 21060R   24273.50132789 -.00000003  00000+0 -41703-4 0  9996
2 48982  87.9169 353.4146 0001983 102.5545 257.5807 13.16595180157266
ONEWEB-0266             
1 48984U 21060T   24273.52272553  .00000081  00000+0  17885-3 0  9991
2 48984  87.9169 353.3856 0001883  96.5250 263.6096 13.16597595157258
